STARLINK-36339          
1 67340U 26003G   26033.25002315  .00042207  00000+0  72181-3 0  9999
2 67340  42.9994  68.7953 0001611 262.4025 171.1763 15.50562252  4976
STARLINK-36453          
1 67341U 26003H   26033.25002315  .00075768  00000+0  12859-2 0  9993
2 67341  42.9992  68.7890 0001652 265.2821 170.2002 15.50556107  4973
STARLINK-36432          
1 67342U 26003J   26033.25002315  .00037635  00000+0  64542-3 0  9992
2 67342  42.9994  68.7845 0001139 274.0384 163.4665 15.50527686  4966
STARLINK-36458          
1 67343U 26003K   26033.25002315  .00069683  00000+0  11838-2 0  9990
2 67343  42.9991  68.7801 0001587 264.0969 175.1950 15.50560646  4972
STARLINK-36422          
1 67344U 26003L   26033.25002315  .00041319  00000+0  70778-3 0  9996
2 67344  42.9994  68.7742 0001058 274.7363 166.6057 15.50524392  4969
STARLINK-35676          
1 67345U 26003M   26033.25002315  .00040687  00000+0  69594-3 0  9998
2 67345  42.9994  68.7702 0001785 262.8826 180.2230 15.50571288  4966
STARLINK-36472          
1 67346U 26003N   26033.25002315  .00034503  00000+0  59141-3 0  9996
2 67346  42.9994  68.7649 0001645 263.7343 181.2847 15.50576185  4962
STARLINK-36420          
1 67347U 26003P   26033.25002315  .00057137  00000+0  97292-3 0  9994
2 67347  42.9993  68.7556 0001682 265.2604 183.5954 15.50571365  4977
STARLINK-36467          
1 67348U 26003Q   26033.25002315  .00033117  00000+0  56798-3 0  9993
2 67348  42.9995  68.7603 0001806 262.5122 184.4369 15.50576153  4976
STARLINK-36457          
1 67349U 26003R   26033.25002315  .00027902  00000+0  48047-3 0  9997
2 67349  42.9993  68.7501 0001721 261.9083 189.0117 15.50535696  4976
STARLINK-36475          
1 67350U 26003S   26033.25002315  .00070907  00000+0  12042-2 0  9997
2 67350  42.9993  68.7453 0001754 263.8194 188.8768 15.50564454  4966
STARLINK-36478          
1 67351U 26003T   26033.25002315  .00045128  00000+0  77227-3 0  9992
2 67351  42.9996  68.7412 0000880 277.7775 176.9914 15.50518995  4963
