CCSDS_OMM_VERS = 2.0
CREATION_DATE  = 
ORIGINATOR     = 

OBJECT_NAME    = STARLINK-36339
OBJECT_ID      = 2026-003G
CENTER_NAME    = EARTH
REF_FRAME      = TEME
TIME_SYSTEM    = UTC
MEAN_ELEMENT_THEORY = SGP/SGP4

EPOCH          = 2026-02-02T06:00:02.000160
MEAN_MOTION    = 15.50562252
ECCENTRICITY   = .00016115
INCLINATION    = 42.9994
RA_OF_ASC_NODE = 68.7953
ARG_OF_PERICENTER = 262.4025
MEAN_ANOMALY   = 171.1763

EPHEMERIS_TYPE = 0
CLASSIFICATION_TYPE = U
NORAD_CAT_ID   = 67340
ELEMENT_SET_NO = 999
REV_AT_EPOCH   = 497
BSTAR          = .72180804E-3
MEAN_MOTION_DOT = .42207E-3
MEAN_MOTION_DDOT = 0

CCSDS_OMM_VERS = 2.0
CREATION_DATE  = 
ORIGINATOR     = 

OBJECT_NAME    = STARLINK-36453
OBJECT_ID      = 2026-003H
CENTER_NAME    = EARTH
REF_FRAME      = TEME
TIME_SYSTEM    = UTC
MEAN_ELEMENT_THEORY = SGP/SGP4

EPOCH          = 2026-02-02T06:00:02.000160
MEAN_MOTION    = 15.50556107
ECCENTRICITY   = .00016527
INCLINATION    = 42.9992
RA_OF_ASC_NODE = 68.7890
ARG_OF_PERICENTER = 265.2821
MEAN_ANOMALY   = 170.2002

EPHEMERIS_TYPE = 0
CLASSIFICATION_TYPE = U
NORAD_CAT_ID   = 67341
ELEMENT_SET_NO = 999
REV_AT_EPOCH   = 497
BSTAR          = .12859015E-2
MEAN_MOTION_DOT = .75768E-3
MEAN_MOTION_DDOT = 0

CCSDS_OMM_VERS = 2.0
CREATION_DATE  = 
ORIGINATOR     = 

OBJECT_NAME    = STARLINK-36432
OBJECT_ID      = 2026-003J
CENTER_NAME    = EARTH
REF_FRAME      = TEME
TIME_SYSTEM    = UTC
MEAN_ELEMENT_THEORY = SGP/SGP4

EPOCH          = 2026-02-02T06:00:02.000160
MEAN_MOTION    = 15.50527686
ECCENTRICITY   = .00011394
INCLINATION    = 42.9994
RA_OF_ASC_NODE = 68.7845
ARG_OF_PERICENTER = 274.0384
MEAN_ANOMALY   = 163.4665

EPHEMERIS_TYPE = 0
CLASSIFICATION_TYPE = U
NORAD_CAT_ID   = 67342
ELEMENT_SET_NO = 999
REV_AT_EPOCH   = 496
BSTAR          = .64542047E-3
MEAN_MOTION_DOT = .37635E-3
MEAN_MOTION_DDOT = 0

CCSDS_OMM_VERS = 2.0
CREATION_DATE  = 
ORIGINATOR     = 

OBJECT_NAME    = STARLINK-36458
OBJECT_ID      = 2026-003K
CENTER_NAME    = EARTH
REF_FRAME      = TEME
TIME_SYSTEM    = UTC
MEAN_ELEMENT_THEORY = SGP/SGP4

EPOCH          = 2026-02-02T06:00:02.000160
MEAN_MOTION    = 15.50560646
ECCENTRICITY   = .00015878
INCLINATION    = 42.9991
RA_OF_ASC_NODE = 68.7801
ARG_OF_PERICENTER = 264.0969
MEAN_ANOMALY   = 175.1950

EPHEMERIS_TYPE = 0
CLASSIFICATION_TYPE = U
NORAD_CAT_ID   = 67343
ELEMENT_SET_NO = 999
REV_AT_EPOCH   = 497
BSTAR          = .11838245E-2
MEAN_MOTION_DOT = .69683E-3
MEAN_MOTION_DDOT = 0

CCSDS_OMM_VERS = 2.0
CREATION_DATE  = 
ORIGINATOR     = 

OBJECT_NAME    = STARLINK-36422
OBJECT_ID      = 2026-003L
CENTER_NAME    = EARTH
REF_FRAME      = TEME
TIME_SYSTEM    = UTC
MEAN_ELEMENT_THEORY = SGP/SGP4

EPOCH          = 2026-02-02T06:00:02.000160
MEAN_MOTION    = 15.50524392
ECCENTRICITY   = .00010585
INCLINATION    = 42.9994
RA_OF_ASC_NODE = 68.7742
ARG_OF_PERICENTER = 274.7363
MEAN_ANOMALY   = 166.6057

EPHEMERIS_TYPE = 0
CLASSIFICATION_TYPE = U
NORAD_CAT_ID   = 67344
ELEMENT_SET_NO = 999
REV_AT_EPOCH   = 496
BSTAR          = .70778417E-3
MEAN_MOTION_DOT = .41319E-3
MEAN_MOTION_DDOT = 0

CCSDS_OMM_VERS = 2.0
CREATION_DATE  = 
ORIGINATOR     = 

OBJECT_NAME    = STARLINK-35676
OBJECT_ID      = 2026-003M
CENTER_NAME    = EARTH
REF_FRAME      = TEME
TIME_SYSTEM    = UTC
MEAN_ELEMENT_THEORY = SGP/SGP4

EPOCH          = 2026-02-02T06:00:02.000160
MEAN_MOTION    = 15.50571288
ECCENTRICITY   = .00017856
INCLINATION    = 42.9994
RA_OF_ASC_NODE = 68.7702
ARG_OF_PERICENTER = 262.8826
MEAN_ANOMALY   = 180.2230

EPHEMERIS_TYPE = 0
CLASSIFICATION_TYPE = U
NORAD_CAT_ID   = 67345
ELEMENT_SET_NO = 999
REV_AT_EPOCH   = 496
BSTAR          = .69593661E-3
MEAN_MOTION_DOT = .40687E-3
MEAN_MOTION_DDOT = 0

CCSDS_OMM_VERS = 2.0
CREATION_DATE  = 
ORIGINATOR     = 

OBJECT_NAME    = STARLINK-36472
OBJECT_ID      = 2026-003N
CENTER_NAME    = EARTH
REF_FRAME      = TEME
TIME_SYSTEM    = UTC
MEAN_ELEMENT_THEORY = SGP/SGP4

EPOCH          = 2026-02-02T06:00:02.000160
MEAN_MOTION    = 15.50576185
ECCENTRICITY   = .00016457
INCLINATION    = 42.9994
RA_OF_ASC_NODE = 68.7649
ARG_OF_PERICENTER = 263.7343
MEAN_ANOMALY   = 181.2847

EPHEMERIS_TYPE = 0
CLASSIFICATION_TYPE = U
NORAD_CAT_ID   = 67346
ELEMENT_SET_NO = 999
REV_AT_EPOCH   = 496
BSTAR          = .59141074E-3
MEAN_MOTION_DOT = .34503E-3
MEAN_MOTION_DDOT = 0

CCSDS_OMM_VERS = 2.0
CREATION_DATE  = 
ORIGINATOR     = 

OBJECT_NAME    = STARLINK-36420
OBJECT_ID      = 2026-003P
CENTER_NAME    = EARTH
REF_FRAME      = TEME
TIME_SYSTEM    = UTC
MEAN_ELEMENT_THEORY = SGP/SGP4

EPOCH          = 2026-02-02T06:00:02.000160
MEAN_MOTION    = 15.50571365
ECCENTRICITY   = .00016829
INCLINATION    = 42.9993
RA_OF_ASC_NODE = 68.7556
ARG_OF_PERICENTER = 265.2604
MEAN_ANOMALY   = 183.5954

EPHEMERIS_TYPE = 0
CLASSIFICATION_TYPE = U
NORAD_CAT_ID   = 67347
ELEMENT_SET_NO = 999
REV_AT_EPOCH   = 497
BSTAR          = .97291664E-3
MEAN_MOTION_DOT = .57137E-3
MEAN_MOTION_DDOT = 0

CCSDS_OMM_VERS = 2.0
CREATION_DATE  = 
ORIGINATOR     = 

OBJECT_NAME    = STARLINK-36467
OBJECT_ID      = 2026-003Q
CENTER_NAME    = EARTH
REF_FRAME      = TEME
TIME_SYSTEM    = UTC
MEAN_ELEMENT_THEORY = SGP/SGP4

EPOCH          = 2026-02-02T06:00:02.000160
MEAN_MOTION    = 15.50576153
ECCENTRICITY   = .0001806
INCLINATION    = 42.9995
RA_OF_ASC_NODE = 68.7603
ARG_OF_PERICENTER = 262.5122
MEAN_ANOMALY   = 184.4369

EPHEMERIS_TYPE = 0
CLASSIFICATION_TYPE = U
NORAD_CAT_ID   = 67348
ELEMENT_SET_NO = 999
REV_AT_EPOCH   = 497
BSTAR          = .56798264E-3
MEAN_MOTION_DOT = .33117E-3
MEAN_MOTION_DDOT = 0

CCSDS_OMM_VERS = 2.0
CREATION_DATE  = 
ORIGINATOR     = 

OBJECT_NAME    = STARLINK-36457
OBJECT_ID      = 2026-003R
CENTER_NAME    = EARTH
REF_FRAME      = TEME
TIME_SYSTEM    = UTC
MEAN_ELEMENT_THEORY = SGP/SGP4

EPOCH          = 2026-02-02T06:00:02.000160
MEAN_MOTION    = 15.50535696
ECCENTRICITY   = .00017212
INCLINATION    = 42.9993
RA_OF_ASC_NODE = 68.7501
ARG_OF_PERICENTER = 261.9083
MEAN_ANOMALY   = 189.0117

EPHEMERIS_TYPE = 0
CLASSIFICATION_TYPE = U
NORAD_CAT_ID   = 67349
ELEMENT_SET_NO = 999
REV_AT_EPOCH   = 497
BSTAR          = .48046992E-3
MEAN_MOTION_DOT = .27902E-3
MEAN_MOTION_DDOT = 0

CCSDS_OMM_VERS = 2.0
CREATION_DATE  = 
ORIGINATOR     = 

OBJECT_NAME    = STARLINK-36475
OBJECT_ID      = 2026-003S
CENTER_NAME    = EARTH
REF_FRAME      = TEME
TIME_SYSTEM    = UTC
MEAN_ELEMENT_THEORY = SGP/SGP4

EPOCH          = 2026-02-02T06:00:02.000160
MEAN_MOTION    = 15.50564454
ECCENTRICITY   = .00017549
INCLINATION    = 42.9993
RA_OF_ASC_NODE = 68.7453
ARG_OF_PERICENTER = 263.8194
MEAN_ANOMALY   = 188.8768

EPHEMERIS_TYPE = 0
CLASSIFICATION_TYPE = U
NORAD_CAT_ID   = 67350
ELEMENT_SET_NO = 999
REV_AT_EPOCH   = 496
BSTAR          = .12041561E-2
MEAN_MOTION_DOT = .70907E-3
MEAN_MOTION_DDOT = 0

CCSDS_OMM_VERS = 2.0
CREATION_DATE  = 
ORIGINATOR     = 

OBJECT_NAME    = STARLINK-36478
OBJECT_ID      = 2026-003T
CENTER_NAME    = EARTH
REF_FRAME      = TEME
TIME_SYSTEM    = UTC
MEAN_ELEMENT_THEORY = SGP/SGP4

EPOCH          = 2026-02-02T06:00:02.000160
MEAN_MOTION    = 15.50518995
ECCENTRICITY   = .00008801
INCLINATION    = 42.9996
RA_OF_ASC_NODE = 68.7412
ARG_OF_PERICENTER = 277.7775
MEAN_ANOMALY   = 176.9914

EPHEMERIS_TYPE = 0
CLASSIFICATION_TYPE = U
NORAD_CAT_ID   = 67351
ELEMENT_SET_NO = 999
REV_AT_EPOCH   = 496
BSTAR          = .77227469E-3
MEAN_MOTION_DOT = .45128E-3
MEAN_MOTION_DDOT = 0

